[
  {
    "COMMENT": "GENERATED VIA SPACETRACK.ORG API",
    "ORIGINATOR": "18 SPCS",
    "NORAD_CAT_ID": "25260",
    "OBJECT_NAME": "SPOT 4",
    "OBJECT_TYPE": "PAYLOAD",
    "CLASSIFICATION_TYPE": "U",
    "INTLDES": "98017A",
    "EPOCH": "2023-05-02 20:18:35",
    "EPOCH_MICROSECONDS": "393472",
    "MEAN_MOTION": "14.54153034",
    "ECCENTRICITY": "0.0013802",
    "INCLINATION": "98.261",
    "RA_OF_ASC_NODE": "216.3992",
    "ARG_OF_PERICENTER": "144.5532",
    "MEAN_ANOMALY": "215.6584",
    "EPHEMERIS_TYPE": "0",
    "ELEMENT_SET_NO": "999",
    "REV_AT_EPOCH": "31332",
    "BSTAR": "0.00013367",
    "MEAN_MOTION_DOT": "0.00000521",
    "MEAN_MOTION_DDOT": "0",
    "FILE": "3899277",
    "TLE_LINE0": "0 SPOT 4",
    "TLE_LINE1": "1 25260U 98017A   23122.84624298  .00000521  00000-0  13367-3 0  9994",
    "TLE_LINE2": "2 25260  98.2610 216.3992 0013802 144.5532 215.6584 14.54153034313326",
    "OBJECT_ID": "1998-017A",
    "OBJECT_NUMBER": "25260",
    "SEMIMAJOR_AXIS": "7090.254",
    "PERIOD": "99.027",
    "APOGEE": "721.905",
    "PERIGEE": "702.333",
    "DECAYED": "0"
  },
  {
    "COMMENT": "GENERATED VIA SPACETRACK.ORG API",
    "ORIGINATOR": "18 SPCS",
    "NORAD_CAT_ID": "25260",
    "OBJECT_NAME": "SPOT 4",
    "OBJECT_TYPE": "PAYLOAD",
    "CLASSIFICATION_TYPE": "U",
    "INTLDES": "98017A",
    "EPOCH": "2023-05-03 04:34:00",
    "EPOCH_MICROSECONDS": "972192",
    "MEAN_MOTION": "14.54153379",
    "ECCENTRICITY": "0.0013823",
    "INCLINATION": "98.261",
    "RA_OF_ASC_NODE": "216.7388",
    "ARG_OF_PERICENTER": "143.5686",
    "MEAN_ANOMALY": "216.6454",
    "EPHEMERIS_TYPE": "0",
    "ELEMENT_SET_NO": "999",
    "REV_AT_EPOCH": "31361",
    "BSTAR": "0.00013449",
    "MEAN_MOTION_DOT": "0.00000524",
    "MEAN_MOTION_DDOT": "0",
    "FILE": "3899517",
    "TLE_LINE0": "0 SPOT 4",
    "TLE_LINE1": "1 25260U 98017A   23123.19028903  .00000524  00000-0  13449-3 0  9998",
    "TLE_LINE2": "2 25260  98.2610 216.7388 0013823 143.5686 216.6454 14.54153379313612",
    "OBJECT_ID": "1998-017A",
    "OBJECT_NUMBER": "25260",
    "SEMIMAJOR_AXIS": "7090.252",
    "PERIOD": "99.027",
    "APOGEE": "721.918",
    "PERIGEE": "702.317",
    "DECAYED": "0"
  },
  {
    "COMMENT": "GENERATED VIA SPACETRACK.ORG API",
    "ORIGINATOR": "18 SPCS",
    "NORAD_CAT_ID": "25260",
    "OBJECT_NAME": "SPOT 4",
    "OBJECT_TYPE": "PAYLOAD",
    "CLASSIFICATION_TYPE": "U",
    "INTLDES": "98017A",
    "EPOCH": "2023-05-03 06:13:06",
    "EPOCH_MICROSECONDS": "82752",
    "MEAN_MOTION": "14.54153469",
    "ECCENTRICITY": "0.0013826",
    "INCLINATION": "98.261",
    "RA_OF_ASC_NODE": "216.8067",
    "ARG_OF_PERICENTER": "143.3701",
    "MEAN_ANOMALY": "216.8444",
    "EPHEMERIS_TYPE": "0",
    "ELEMENT_SET_NO": "999",
    "REV_AT_EPOCH": "31362",
    "BSTAR": "0.00013465",
    "MEAN_MOTION_DOT": "0.00000525",
    "MEAN_MOTION_DDOT": "0",
    "FILE": "3899767",
    "TLE_LINE0": "0 SPOT 4",
    "TLE_LINE1": "1 25260U 98017A   23123.25909818  .00000525  00000-0  13465-3 0  9997",
    "TLE_LINE2": "2 25260  98.2610 216.8067 0013826 143.3701 216.8444 14.54153469313628",
    "OBJECT_ID": "1998-017A",
    "OBJECT_NUMBER": "25260",
    "SEMIMAJOR_AXIS": "7090.252",
    "PERIOD": "99.027",
    "APOGEE": "721.920",
    "PERIGEE": "702.314",
    "DECAYED": "0"
  },
  {
    "COMMENT": "GENERATED VIA SPACETRACK.ORG API",
    "ORIGINATOR": "18 SPCS",
    "NORAD_CAT_ID": "25260",
    "OBJECT_NAME": "SPOT 4",
    "OBJECT_TYPE": "PAYLOAD",
    "CLASSIFICATION_TYPE": "U",
    "INTLDES": "98017A",
    "EPOCH": "2023-05-03 06:13:06",
    "EPOCH_MICROSECONDS": "82752",
    "MEAN_MOTION": "14.54153469",
    "ECCENTRICITY": "0.0013826",
    "INCLINATION": "98.261",
    "RA_OF_ASC_NODE": "216.8067",
    "ARG_OF_PERICENTER": "143.3701",
    "MEAN_ANOMALY": "216.8444",
    "EPHEMERIS_TYPE": "0",
    "ELEMENT_SET_NO": "999",
    "REV_AT_EPOCH": "31338",
    "BSTAR": "0.00013465",
    "MEAN_MOTION_DOT": "0.00000525",
    "MEAN_MOTION_DDOT": "0",
    "FILE": "3899966",
    "TLE_LINE0": "0 SPOT 4",
    "TLE_LINE1": "1 25260U 98017A   23123.25909818  .00000525  00000-0  13465-3 0  9997",
    "TLE_LINE2": "2 25260  98.2610 216.8067 0013826 143.3701 216.8444 14.54153469313381",
    "OBJECT_ID": "1998-017A",
    "OBJECT_NUMBER": "25260",
    "SEMIMAJOR_AXIS": "7090.252",
    "PERIOD": "99.027",
    "APOGEE": "721.920",
    "PERIGEE": "702.314",
    "DECAYED": "0"
  },
  {
    "COMMENT": "GENERATED VIA SPACETRACK.ORG API",
    "ORIGINATOR": "18 SPCS",
    "NORAD_CAT_ID": "25260",
    "OBJECT_NAME": "SPOT 4",
    "OBJECT_TYPE": "PAYLOAD",
    "CLASSIFICATION_TYPE": "U",
    "INTLDES": "98017A",
    "EPOCH": "2023-05-03 19:25:46",
    "EPOCH_MICROSECONDS": "951680",
    "MEAN_MOTION": "14.54153961",
    "ECCENTRICITY": "0.0013858",
    "INCLINATION": "98.2611",
    "RA_OF_ASC_NODE": "217.3502",
    "ARG_OF_PERICENTER": "141.7826",
    "MEAN_ANOMALY": "218.4356",
    "EPHEMERIS_TYPE": "0",
    "ELEMENT_SET_NO": "999",
    "REV_AT_EPOCH": "31370",
    "BSTAR": "0.00012635",
    "MEAN_MOTION_DOT": "0.0000049",
    "MEAN_MOTION_DDOT": "0",
    "FILE": "3900232",
    "TLE_LINE0": "0 SPOT 4",
    "TLE_LINE1": "1 25260U 98017A   23123.80957120  .00000490  00000-0  12635-3 0  9996",
    "TLE_LINE2": "2 25260  98.2611 217.3502 0013858 141.7826 218.4356 14.54153961313700",
    "OBJECT_ID": "1998-017A",
    "OBJECT_NUMBER": "25260",
    "SEMIMAJOR_AXIS": "7090.251",
    "PERIOD": "99.027",
    "APOGEE": "721.941",
    "PERIGEE": "702.290",
    "DECAYED": "0"
  },
  {
    "COMMENT": "GENERATED VIA SPACETRACK.ORG API",
    "ORIGINATOR": "18 SPCS",
    "NORAD_CAT_ID": "25260",
    "OBJECT_NAME": "SPOT 4",
    "OBJECT_TYPE": "PAYLOAD",
    "CLASSIFICATION_TYPE": "U",
    "INTLDES": "98017A",
    "EPOCH": "2023-05-03 21:04:52",
    "EPOCH_MICROSECONDS": "58784",
    "MEAN_MOTION": "14.54154046",
    "ECCENTRICITY": "0.001386",
    "INCLINATION": "98.261",
    "RA_OF_ASC_NODE": "217.4181",
    "ARG_OF_PERICENTER": "141.5672",
    "MEAN_ANOMALY": "218.6514",
    "EPHEMERIS_TYPE": "0",
    "ELEMENT_SET_NO": "999",
    "REV_AT_EPOCH": "31347",
    "BSTAR": "0.00012676",
    "MEAN_MOTION_DOT": "0.00000491",
    "MEAN_MOTION_DDOT": "0",
    "FILE": "3900281",
    "TLE_LINE0": "0 SPOT 4",
    "TLE_LINE1": "1 25260U 98017A   23123.87838031  .00000491  00000-0  12676-3 0  9998",
    "TLE_LINE2": "2 25260  98.2610 217.4181 0013860 141.5672 218.6514 14.54154046313470",
    "OBJECT_ID": "1998-017A",
    "OBJECT_NUMBER": "25260",
    "SEMIMAJOR_AXIS": "7090.250",
    "PERIOD": "99.027",
    "APOGEE": "721.942",
    "PERIGEE": "702.288",
    "DECAYED": "0"
  },
  {
    "COMMENT": "GENERATED VIA SPACETRACK.ORG API",
    "ORIGINATOR": "18 SPCS",
    "NORAD_CAT_ID": "25260",
    "OBJECT_NAME": "SPOT 4",
    "OBJECT_TYPE": "PAYLOAD",
    "CLASSIFICATION_TYPE": "U",
    "INTLDES": "98017A",
    "EPOCH": "2023-05-04 00:23:02",
    "EPOCH_MICROSECONDS": "273856",
    "MEAN_MOTION": "14.54154195",
    "ECCENTRICITY": "0.0013868",
    "INCLINATION": "98.2611",
    "RA_OF_ASC_NODE": "217.5539",
    "ARG_OF_PERICENTER": "141.1817",
    "MEAN_ANOMALY": "219.0378",
    "EPHEMERIS_TYPE": "0",
    "ELEMENT_SET_NO": "999",
    "REV_AT_EPOCH": "31373",
    "BSTAR": "0.00012676",
    "MEAN_MOTION_DOT": "0.00000491",
    "MEAN_MOTION_DDOT": "0",
    "FILE": "3900492",
    "TLE_LINE0": "0 SPOT 4",
    "TLE_LINE1": "1 25260U 98017A   23124.01599854  .00000491  00000-0  12676-3 0  9992",
    "TLE_LINE2": "2 25260  98.2611 217.5539 0013868 141.1817 219.0378 14.54154195313731",
    "OBJECT_ID": "1998-017A",
    "OBJECT_NUMBER": "25260",
    "SEMIMAJOR_AXIS": "7090.250",
    "PERIOD": "99.027",
    "APOGEE": "721.948",
    "PERIGEE": "702.282",
    "DECAYED": "0"
  },
  {
    "COMMENT": "GENERATED VIA SPACETRACK.ORG API",
    "ORIGINATOR": "18 SPCS",
    "NORAD_CAT_ID": "25260",
    "OBJECT_NAME": "SPOT 4",
    "OBJECT_TYPE": "PAYLOAD",
    "CLASSIFICATION_TYPE": "U",
    "INTLDES": "98017A",
    "EPOCH": "2023-05-04 11:56:38",
    "EPOCH_MICROSECONDS": "7168",
    "MEAN_MOTION": "14.54155006",
    "ECCENTRICITY": "0.001389",
    "INCLINATION": "98.2611",
    "RA_OF_ASC_NODE": "218.0294",
    "ARG_OF_PERICENTER": "139.8141",
    "MEAN_ANOMALY": "220.4085",
    "EPHEMERIS_TYPE": "0",
    "ELEMENT_SET_NO": "999",
    "REV_AT_EPOCH": "31380",
    "BSTAR": "0.00013731",
    "MEAN_MOTION_DOT": "0.00000536",
    "MEAN_MOTION_DDOT": "0",
    "FILE": "3900805",
    "TLE_LINE0": "0 SPOT 4",
    "TLE_LINE1": "1 25260U 98017A   23124.49766212  .00000536  00000-0  13731-3 0  9991",
    "TLE_LINE2": "2 25260  98.2611 218.0294 0013890 139.8141 220.4085 14.54155006313805",
    "OBJECT_ID": "1998-017A",
    "OBJECT_NUMBER": "25260",
    "SEMIMAJOR_AXIS": "7090.247",
    "PERIOD": "99.027",
    "APOGEE": "721.960",
    "PERIGEE": "702.264",
    "DECAYED": "0"
  },
  {
    "COMMENT": "GENERATED VIA SPACETRACK.ORG API",
    "ORIGINATOR": "18 SPCS",
    "NORAD_CAT_ID": "25260",
    "OBJECT_NAME": "SPOT 4",
    "OBJECT_TYPE": "PAYLOAD",
    "CLASSIFICATION_TYPE": "U",
    "INTLDES": "98017A",
    "EPOCH": "2023-05-04 11:56:38",
    "EPOCH_MICROSECONDS": "7168",
    "MEAN_MOTION": "14.54155006",
    "ECCENTRICITY": "0.001389",
    "INCLINATION": "98.2611",
    "RA_OF_ASC_NODE": "218.0294",
    "ARG_OF_PERICENTER": "139.8141",
    "MEAN_ANOMALY": "220.4085",
    "EPHEMERIS_TYPE": "0",
    "ELEMENT_SET_NO": "999",
    "REV_AT_EPOCH": "31356",
    "BSTAR": "0.00013731",
    "MEAN_MOTION_DOT": "0.00000536",
    "MEAN_MOTION_DDOT": "0",
    "FILE": "3900892",
    "TLE_LINE0": "0 SPOT 4",
    "TLE_LINE1": "1 25260U 98017A   23124.49766212  .00000536  00000-0  13731-3 0  9991",
    "TLE_LINE2": "2 25260  98.2611 218.0294 0013890 139.8141 220.4085 14.54155006313568",
    "OBJECT_ID": "1998-017A",
    "OBJECT_NUMBER": "25260",
    "SEMIMAJOR_AXIS": "7090.247",
    "PERIOD": "99.027",
    "APOGEE": "721.960",
    "PERIGEE": "702.264",
    "DECAYED": "0"
  }
]